start=new Date('2023-01-01T00:00:00.000Z').valueOf();
sats=[{"REV_AT_EPOCH":"12478","DECAY_DATE":null,"OBJECT_NAME":"STARLINK-1649","NORAD_CAT_ID":"46552","REF_FRAME":"TEME","ECCENTRICITY":"0.00028820","MEAN_MOTION_DOT":"0.00082733","APOAPSIS":"382.648","TLE_LINE2":"2 46552  53.0472 304.0341 0002882  68.5066 291.6255 15.62409810124789","SITE":"AFETR","RCS_SIZE":"LARGE","PERIOD":"92.165","COUNTRY_CODE":"US","ARG_OF_PERICENTER":"68.5066","MEAN_MOTION_DDOT":"0.0000000000000","OBJECT_ID":"2020-070W","MEAN_MOTION":"15.62409810","RA_OF_ASC_NODE":"304.0341","ELEMENT_SET_NO":"999","BSTAR":"0.00091222000000","MEAN_ELEMENT_THEORY":"SGP4","FILE":"3727591","INCLINATION":"53.0472","GP_ID":"221803621","EPHEMERIS_TYPE":"0","CLASSIFICATION_TYPE":"U","OBJECT_TYPE":"PAYLOAD","CENTER_NAME":"EARTH","LAUNCH_DATE":"2020-10-06","PERIAPSIS":"378.753","TLE_LINE1":"1 46552U 20070W   22365.26921162  .00082733  00000-0  91222-3 0  9990","SEMIMAJOR_AXIS":"6758.835","EPOCH":"2022-12-31T06:27:39.883968","MEAN_ANOMALY":"291.6255","TIME_SYSTEM":"UTC"},{"BSTAR":"0.00035767000000","OBJECT_ID":"2020-070X","MEAN_MOTION":"15.06423215","ELEMENT_SET_NO":"999","RA_OF_ASC_NODE":"332.2417","MEAN_MOTION_DDOT":"0.0000000000000","ARG_OF_PERICENTER":"43.2811","COUNTRY_CODE":"US","RCS_SIZE":"LARGE","PERIOD":"95.591","SITE":"AFETR","TLE_LINE2":"2 46553  53.0540 332.2417 0002179  43.2811 316.8349 15.06423215124473","APOAPSIS":"548.651","MEAN_MOTION_DOT":"0.00005053","REF_FRAME":"TEME","ECCENTRICITY":"0.00021790","DECAY_DATE":null,"REV_AT_EPOCH":"12447","NORAD_CAT_ID":"46553","OBJECT_NAME":"STARLINK-1664","TIME_SYSTEM":"UTC","SEMIMAJOR_AXIS":"6925.277","EPOCH":"2022-12-31T15:28:27.162048","MEAN_ANOMALY":"316.8349","CENTER_NAME":"EARTH","PERIAPSIS":"545.633","TLE_LINE1":"1 46553U 20070X   22365.64475882  .00005053  00000-0  35767-3 0  9998","LAUNCH_DATE":"2020-10-06","OBJECT_TYPE":"PAYLOAD","CLASSIFICATION_TYPE":"U","EPHEMERIS_TYPE":"0","GP_ID":"221887088","FILE":"3728081","MEAN_ELEMENT_THEORY":"SGP4","INCLINATION":"53.0540"},{"CLASSIFICATION_TYPE":"U","EPHEMERIS_TYPE":"0","GP_ID":"221887337","INCLINATION":"53.0552","MEAN_ELEMENT_THEORY":"SGP4","FILE":"3728081","TIME_SYSTEM":"UTC","MEAN_ANOMALY":"318.3341","SEMIMAJOR_AXIS":"6925.303","EPOCH":"2022-12-31T19:54:30.026016","TLE_LINE1":"1 46554U 20070Y   22365.82951419  .00000251  00000-0  35733-4 0  9993","PERIAPSIS":"545.695","LAUNCH_DATE":"2020-10-06","CENTER_NAME":"EARTH","OBJECT_TYPE":"PAYLOAD","APOAPSIS":"548.642","TLE_LINE2":"2 46554  53.0552 346.3888 0002128  41.7810 318.3341 15.06414714124294","SITE":"AFETR","MEAN_MOTION_DOT":"0.00000251","ECCENTRICITY":"0.00021280","REF_FRAME":"TEME","NORAD_CAT_ID":"46554","OBJECT_NAME":"STARLINK-1671","DECAY_DATE":null,"REV_AT_EPOCH":"12429","BSTAR":"0.00003573300000","ELEMENT_SET_NO":"999","RA_OF_ASC_NODE":"346.3888","OBJECT_ID":"2020-070Y","MEAN_MOTION":"15.06414714","MEAN_MOTION_DDOT":"0.0000000000000","COUNTRY_CODE":"US","ARG_OF_PERICENTER":"41.7810","PERIOD":"95.591","RCS_SIZE":"LARGE"},{"INCLINATION":"53.0549","MEAN_ELEMENT_THEORY":"SGP4","FILE":"3728081","GP_ID":"221888089","EPHEMERIS_TYPE":"0","CLASSIFICATION_TYPE":"U","OBJECT_TYPE":"PAYLOAD","TLE_LINE1":"1 46556U 20070AA  22365.68991610  .00003906  00000-0  28090-3 0  9993","PERIAPSIS":"546.028","LAUNCH_DATE":"2020-10-06","CENTER_NAME":"EARTH","MEAN_ANOMALY":"305.6468","SEMIMAJOR_AXIS":"6925.325","EPOCH":"2022-12-31T16:33:28.751040","TIME_SYSTEM":"UTC","NORAD_CAT_ID":"46556","OBJECT_NAME":"STARLINK-1676","DECAY_DATE":null,"REV_AT_EPOCH":"12406","ECCENTRICITY":"0.00016780","REF_FRAME":"TEME","MEAN_MOTION_DOT":"0.00003906","TLE_LINE2":"2 46556  53.0549   2.0076 0001678  54.4677 305.6468 15.06407775124061","SITE":"AFETR","APOAPSIS":"548.352","PERIOD":"95.592","RCS_SIZE":"LARGE","MEAN_MOTION_DDOT":"0.0000000000000","ARG_OF_PERICENTER":"54.4677","COUNTRY_CODE":"US","ELEMENT_SET_NO":"999","RA_OF_ASC_NODE":"2.0076","MEAN_MOTION":"15.06407775","OBJECT_ID":"2020-070AA","BSTAR":"0.00028090000000"},{"INCLINATION":"53.0555","MEAN_ELEMENT_THEORY":"SGP4","FILE":"3728081","GP_ID":"221887828","EPHEMERIS_TYPE":"0","CLASSIFICATION_TYPE":"U","OBJECT_TYPE":"PAYLOAD","LAUNCH_DATE":"2020-10-06","TLE_LINE1":"1 46557U 20070AB  22365.66734362  .00003576  00000-0  25886-3 0  9994","PERIAPSIS":"545.666","CENTER_NAME":"EARTH","MEAN_ANOMALY":"320.3154","SEMIMAJOR_AXIS":"6925.362","EPOCH":"2022-12-31T16:00:58.488768","TIME_SYSTEM":"UTC","OBJECT_NAME":"STARLINK-1679","NORAD_CAT_ID":"46557","REV_AT_EPOCH":"12427","DECAY_DATE":null,"ECCENTRICITY":"0.00022540","REF_FRAME":"TEME","MEAN_MOTION_DOT":"0.00003576","APOAPSIS":"548.788","TLE_LINE2":"2 46557  53.0555 347.1252 0002254  39.8000 320.3154 15.06395721124272","SITE":"AFETR","PERIOD":"95.592","RCS_SIZE":"LARGE","COUNTRY_CODE":"US","ARG_OF_PERICENTER":"39.8000","MEAN_MOTION_DDOT":"0.0000000000000","RA_OF_ASC_NODE":"347.1252","ELEMENT_SET_NO":"999","MEAN_MOTION":"15.06395721","OBJECT_ID":"2020-070AB","BSTAR":"0.00025886000000"},{"RCS_SIZE":"LARGE","PERIOD":"95.592","ARG_OF_PERICENTER":"46.7453","COUNTRY_CODE":"US","MEAN_MOTION_DDOT":"0.0000000000000","OBJECT_ID":"2020-070AC","MEAN_MOTION":"15.06402199","RA_OF_ASC_NODE":"347.0932","ELEMENT_SET_NO":"999","BSTAR":"0.00030732000000","REV_AT_EPOCH":"12424","DECAY_DATE":null,"OBJECT_NAME":"STARLINK-1680","NORAD_CAT_ID":"46558","REF_FRAME":"TEME","ECCENTRICITY":"0.00021090","MEAN_MOTION_DOT":"0.00004299","TLE_LINE2":"2 46558  53.0561 347.0932 0002109  46.7453 313.3712 15.06402199124249","SITE":"AFETR","APOAPSIS":"548.667","OBJECT_TYPE":"PAYLOAD","CENTER_NAME":"EARTH","LAUNCH_DATE":"2020-10-06","PERIAPSIS":"545.746","TLE_LINE1":"1 46558U 20070AC  22365.67470944  .00004299  00000-0  30732-3 0  9998","SEMIMAJOR_AXIS":"6925.342","EPOCH":"2022-12-31T16:11:34.895616","MEAN_ANOMALY":"313.3712","TIME_SYSTEM":"UTC","FILE":"3728081","MEAN_ELEMENT_THEORY":"SGP4","INCLINATION":"53.0561","GP_ID":"221886588","EPHEMERIS_TYPE":"0","CLASSIFICATION_TYPE":"U"},{"BSTAR":"0.00052431000000","ELEMENT_SET_NO":"999","RA_OF_ASC_NODE":"333.6241","MEAN_MOTION":"15.06422460","OBJECT_ID":"2020-070AD","MEAN_MOTION_DDOT":"0.0000000000000","COUNTRY_CODE":"US","ARG_OF_PERICENTER":"55.2518","PERIOD":"95.591","RCS_SIZE":"LARGE","APOAPSIS":"548.319","TLE_LINE2":"2 46559  53.0553 333.6241 0001696  55.2518 304.8630 15.06422460124429","SITE":"AFETR","MEAN_MOTION_DOT":"0.00007541","ECCENTRICITY":"0.00016960","REF_FRAME":"TEME","NORAD_CAT_ID":"46559","OBJECT_NAME":"STARLINK-1681","DECAY_DATE":null,"REV_AT_EPOCH":"12442","TIME_SYSTEM":"UTC","MEAN_ANOMALY":"304.8630","SEMIMAJOR_AXIS":"6925.280","EPOCH":"2022-12-31T07:55:55.340832","PERIAPSIS":"545.970","TLE_LINE1":"1 46559U 20070AD  22365.33050163  .00007541  00000-0  52431-3 0  9992","LAUNCH_DATE":"2020-10-06","CENTER_NAME":"EARTH","OBJECT_TYPE":"PAYLOAD","CLASSIFICATION_TYPE":"U","EPHEMERIS_TYPE":"0","GP_ID":"221833616","INCLINATION":"53.0553","FILE":"3727988","MEAN_ELEMENT_THEORY":"SGP4"},{"BSTAR":"0.04886100000000","OBJECT_ID":"2020-070AE","MEAN_MOTION":"15.21828574","RA_OF_ASC_NODE":"345.6213","ELEMENT_SET_NO":"999","ARG_OF_PERICENTER":"72.1362","COUNTRY_CODE":"US","MEAN_MOTION_DDOT":"0.0000000000000","RCS_SIZE":"LARGE","PERIOD":"94.623","APOAPSIS":"501.336","TLE_LINE2":"2 46560  53.0547 345.6213 0001467  72.1362 272.8235 15.21828574  1306","SITE":"AFETR","MEAN_MOTION_DOT":"0.01227827","REF_FRAME":"TEME","ECCENTRICITY":"0.00014670","REV_AT_EPOCH":"130","DECAY_DATE":null,"OBJECT_NAME":"STARLINK-1706","NORAD_CAT_ID":"46560","TIME_SYSTEM":"UTC","SEMIMAJOR_AXIS":"6878.462","EPOCH":"2022-12-31T22:00:00.999936","MEAN_ANOMALY":"272.8235","CENTER_NAME":"EARTH","LAUNCH_DATE":"2020-10-06","TLE_LINE1":"1 46560U 20070AE  22365.91667824  .01227827  00000-0  48861-1 0  9998","PERIAPSIS":"499.318","OBJECT_TYPE":"PAYLOAD","CLASSIFICATION_TYPE":"U","EPHEMERIS_TYPE":"0","GP_ID":"221887589","FILE":"3728081","MEAN_ELEMENT_THEORY":"SGP4","INCLINATION":"53.0547"},{"PERIOD":"95.591","RCS_SIZE":"LARGE","ARG_OF_PERICENTER":"45.7914","COUNTRY_CODE":"US","MEAN_MOTION_DDOT":"0.0000000000000","RA_OF_ASC_NODE":"348.4513","ELEMENT_SET_NO":"999","MEAN_MOTION":"15.06416261","OBJECT_ID":"2020-070AF","BSTAR":"0.00053747000000","OBJECT_NAME":"STARLINK-1709","NORAD_CAT_ID":"46561","REV_AT_EPOCH":"12422","DECAY_DATE":null,"ECCENTRICITY":"0.00023730","REF_FRAME":"TEME","MEAN_MOTION_DOT":"0.00007736","TLE_LINE2":"2 46561  53.0564 348.4513 0002373  45.7914 314.3270 15.06416261124223","APOAPSIS":"548.807","SITE":"AFETR","OBJECT_TYPE":"PAYLOAD","LAUNCH_DATE":"2020-10-06","TLE_LINE1":"1 46561U 20070AF  22365.37520697  .00007736  00000-0  53747-3 0  9990","PERIAPSIS":"545.520","CENTER_NAME":"EARTH","MEAN_ANOMALY":"314.3270","SEMIMAJOR_AXIS":"6925.299","EPOCH":"2022-12-31T09:00:17.882208","TIME_SYSTEM":"UTC","INCLINATION":"53.0564","MEAN_ELEMENT_THEORY":"SGP4","FILE":"3727988","GP_ID":"221832610","EPHEMERIS_TYPE":"0","CLASSIFICATION_TYPE":"U"},{"TIME_SYSTEM":"UTC","SEMIMAJOR_AXIS":"6925.329","EPOCH":"2022-12-31T15:20:27.697344","MEAN_ANOMALY":"316.5421","CENTER_NAME":"EARTH","TLE_LINE1":"1 46562U 20070AG  22365.63920946  .00002590  00000-0  19270-3 0  9997","PERIAPSIS":"545.631","LAUNCH_DATE":"2020-10-06","OBJECT_TYPE":"PAYLOAD","CLASSIFICATION_TYPE":"U","EPHEMERIS_TYPE":"0","GP_ID":"221887089","FILE":"3728081","MEAN_ELEMENT_THEORY":"SGP4","INCLINATION":"53.0568","BSTAR":"0.00019270000000","MEAN_MOTION":"15.06406272","OBJECT_ID":"2020-070AG","ELEMENT_SET_NO":"999","RA_OF_ASC_NODE":"342.2275","MEAN_MOTION_DDOT":"0.0000000000000","ARG_OF_PERICENTER":"43.5746","COUNTRY_CODE":"US","RCS_SIZE":"LARGE","PERIOD":"95.592","APOAPSIS":"548.758","TLE_LINE2":"2 46562  53.0568 342.2275 0002258  43.5746 316.5421 15.06406272124331","SITE":"AFETR","MEAN_MOTION_DOT":"0.00002590","REF_FRAME":"TEME","ECCENTRICITY":"0.00022580","DECAY_DATE":null,"REV_AT_EPOCH":"12433","NORAD_CAT_ID":"46562","OBJECT_NAME":"STARLINK-1714"}];
